ISS OBJECT YC           
1 67686U 98067YC  26055.51714998  .00045468  00000+0  76511-3 0  9994
2 67686  51.6312 137.1991 0007729 108.4650 251.7180 15.51233940  2743
LEOPARD                 
1 67687U 98067YD  26056.61546958  .00033259  00000+0  56938-3 0  9992
2 67687  51.6311 131.7823 0007710 115.1078 245.0712 15.50897316  2835
ISS OBJECT YE           
1 67688U 98067YE  26056.41999476  .00042562  00000+0  71855-3 0  9990
2 67688  51.6315 132.7279 0007609 111.7253 248.4547 15.51173026  2806
PRC TEST SPACECRAFT 4   
1 67689U 26024A   26056.56909878  .00000005  00000+0  24534-4 0  9997
2 67689  49.9850  79.6688 0006160 313.3876  46.6552 14.91677737  2777
CZ-2F R/B               
1 67690U 26024B   26056.52232853  .00018445  00000+0  34180-3 0  9991
2 67690  49.9871  75.5999 0175964 224.4770 134.1948 15.33791023  2826
CZ-2F DEB               
1 67691U 26024C   26056.49844021  .00813865  10571-4  77415-3 0  9990
2 67691  49.9048  70.6887 0200338 235.6198 122.5691 15.81862339  2870
CZ-2F DEB               
1 67692U 26024D   26056.53575653  .00183237  00000+0  34852-2 0  9999
2 67692  50.3163  78.2041 0249205 232.2503 125.5641 15.20084454  2774
STARLINK-36748          
1 67693U 26025A   26056.58336806 -.00023704  00000+0 -15859-3 0  9992
2 67693  97.2841 167.5173 0001267  96.8283 176.2084 15.75176328  3901
STARLINK-36753          
1 67694U 26025B   26056.58336806 -.00076627  00000+0 -51710-3 0  9991
2 67694  97.2843 167.5350 0001431  79.2808 237.7396 15.75206913  4063
STARLINK-36750          
1 67695U 26025C   26056.46253281  .00172994  00000+0  88265-3 0  9991
2 67695  97.2831 167.4124 0001386  91.7593 268.3834 15.80901366  4010
STARLINK-36401          
1 67696U 26025D   26056.46098004  .00230233  00000+0  11651-2 0  9997
2 67696  97.2829 167.4142 0001459  82.6089 277.5345 15.80931340  4012
STARLINK-36704          
1 67697U 26025E   26056.58336806 -.00147566  00000+0 -10028-2 0  9991
2 67697  97.2841 167.5393 0001469  70.3568 258.6254 15.75253781  3909
