CCSDS_OMM_VERS = 2.0
CREATION_DATE  = 
ORIGINATOR     = 

OBJECT_NAME    = ISS OBJECT YC
OBJECT_ID      = 1998-067YC
CENTER_NAME    = EARTH
REF_FRAME      = TEME
TIME_SYSTEM    = UTC
MEAN_ELEMENT_THEORY = SGP/SGP4

EPOCH          = 2026-02-24T12:24:41.758272
MEAN_MOTION    = 15.51233940
ECCENTRICITY   = .00077298
INCLINATION    = 51.6312
RA_OF_ASC_NODE = 137.1991
ARG_OF_PERICENTER = 108.4650
MEAN_ANOMALY   = 251.7180

EPHEMERIS_TYPE = 0
CLASSIFICATION_TYPE = U
NORAD_CAT_ID   = 67686
ELEMENT_SET_NO = 999
REV_AT_EPOCH   = 274
BSTAR          = .76511481E-3
MEAN_MOTION_DOT = .45468E-3
MEAN_MOTION_DDOT = 0

CCSDS_OMM_VERS = 2.0
CREATION_DATE  = 
ORIGINATOR     = 

OBJECT_NAME    = LEOPARD
OBJECT_ID      = 1998-067YD
CENTER_NAME    = EARTH
REF_FRAME      = TEME
TIME_SYSTEM    = UTC
MEAN_ELEMENT_THEORY = SGP/SGP4

EPOCH          = 2026-02-25T14:46:16.571712
MEAN_MOTION    = 15.50897316
ECCENTRICITY   = .00077103
INCLINATION    = 51.6311
RA_OF_ASC_NODE = 131.7823
ARG_OF_PERICENTER = 115.1078
MEAN_ANOMALY   = 245.0712

EPHEMERIS_TYPE = 0
CLASSIFICATION_TYPE = U
NORAD_CAT_ID   = 67687
ELEMENT_SET_NO = 999
REV_AT_EPOCH   = 283
BSTAR          = .56938179E-3
MEAN_MOTION_DOT = .33259E-3
MEAN_MOTION_DDOT = 0

CCSDS_OMM_VERS = 2.0
CREATION_DATE  = 
ORIGINATOR     = 

OBJECT_NAME    = ISS OBJECT YE
OBJECT_ID      = 1998-067YE
CENTER_NAME    = EARTH
REF_FRAME      = TEME
TIME_SYSTEM    = UTC
MEAN_ELEMENT_THEORY = SGP/SGP4

EPOCH          = 2026-02-25T10:04:47.547264
MEAN_MOTION    = 15.51173026
ECCENTRICITY   = .0007609
INCLINATION    = 51.6315
RA_OF_ASC_NODE = 132.7279
ARG_OF_PERICENTER = 111.7253
MEAN_ANOMALY   = 248.4547

EPHEMERIS_TYPE = 0
CLASSIFICATION_TYPE = U
NORAD_CAT_ID   = 67688
ELEMENT_SET_NO = 999
REV_AT_EPOCH   = 280
BSTAR          = .71854567E-3
MEAN_MOTION_DOT = .42562E-3
MEAN_MOTION_DDOT = 0

CCSDS_OMM_VERS = 2.0
CREATION_DATE  = 
ORIGINATOR     = 

OBJECT_NAME    = PRC TEST SPACECRAFT 4
OBJECT_ID      = 2026-024A
CENTER_NAME    = EARTH
REF_FRAME      = TEME
TIME_SYSTEM    = UTC
MEAN_ELEMENT_THEORY = SGP/SGP4

EPOCH          = 2026-02-25T13:39:30.134592
MEAN_MOTION    = 14.91677737
ECCENTRICITY   = .00061607
INCLINATION    = 49.9850
RA_OF_ASC_NODE = 79.6688
ARG_OF_PERICENTER = 313.3876
MEAN_ANOMALY   = 46.6552

EPHEMERIS_TYPE = 0
CLASSIFICATION_TYPE = U
NORAD_CAT_ID   = 67689
ELEMENT_SET_NO = 999
REV_AT_EPOCH   = 277
BSTAR          = .24534301E-4
MEAN_MOTION_DOT = .5E-7
MEAN_MOTION_DDOT = 0

CCSDS_OMM_VERS = 2.0
CREATION_DATE  = 
ORIGINATOR     = 

OBJECT_NAME    = CZ-2F R/B
OBJECT_ID      = 2026-024B
CENTER_NAME    = EARTH
REF_FRAME      = TEME
TIME_SYSTEM    = UTC
MEAN_ELEMENT_THEORY = SGP/SGP4

EPOCH          = 2026-02-25T12:32:09.184992
MEAN_MOTION    = 15.33791023
ECCENTRICITY   = .0175964
INCLINATION    = 49.9871
RA_OF_ASC_NODE = 75.5999
ARG_OF_PERICENTER = 224.4770
MEAN_ANOMALY   = 134.1948

EPHEMERIS_TYPE = 0
CLASSIFICATION_TYPE = U
NORAD_CAT_ID   = 67690
ELEMENT_SET_NO = 999
REV_AT_EPOCH   = 282
BSTAR          = .34180435E-3
MEAN_MOTION_DOT = .18445E-3
MEAN_MOTION_DDOT = 0

CCSDS_OMM_VERS = 2.0
CREATION_DATE  = 
ORIGINATOR     = 

OBJECT_NAME    = CZ-2F DEB
OBJECT_ID      = 2026-024C
CENTER_NAME    = EARTH
REF_FRAME      = TEME
TIME_SYSTEM    = UTC
MEAN_ELEMENT_THEORY = SGP/SGP4

EPOCH          = 2026-02-25T11:57:45.234144
MEAN_MOTION    = 15.81862339
ECCENTRICITY   = .02003385
INCLINATION    = 49.9048
RA_OF_ASC_NODE = 70.6887
ARG_OF_PERICENTER = 235.6198
MEAN_ANOMALY   = 122.5691

EPHEMERIS_TYPE = 0
CLASSIFICATION_TYPE = U
NORAD_CAT_ID   = 67691
ELEMENT_SET_NO = 999
REV_AT_EPOCH   = 287
BSTAR          = .77415106E-3
MEAN_MOTION_DOT = .813865E-2
MEAN_MOTION_DDOT = .10571289E-4

CCSDS_OMM_VERS = 2.0
CREATION_DATE  = 
ORIGINATOR     = 

OBJECT_NAME    = CZ-2F DEB
OBJECT_ID      = 2026-024D
CENTER_NAME    = EARTH
REF_FRAME      = TEME
TIME_SYSTEM    = UTC
MEAN_ELEMENT_THEORY = SGP/SGP4

EPOCH          = 2026-02-25T12:51:29.364192
MEAN_MOTION    = 15.20084454
ECCENTRICITY   = .02492053
INCLINATION    = 50.3163
RA_OF_ASC_NODE = 78.2041
ARG_OF_PERICENTER = 232.2503
MEAN_ANOMALY   = 125.5641

EPHEMERIS_TYPE = 0
CLASSIFICATION_TYPE = U
NORAD_CAT_ID   = 67692
ELEMENT_SET_NO = 999
REV_AT_EPOCH   = 277
BSTAR          = .34851721E-2
MEAN_MOTION_DOT = .183237E-2
MEAN_MOTION_DDOT = 0

CCSDS_OMM_VERS = 2.0
CREATION_DATE  = 
ORIGINATOR     = 

OBJECT_NAME    = STARLINK-36748
OBJECT_ID      = 2026-025A
CENTER_NAME    = EARTH
REF_FRAME      = TEME
TIME_SYSTEM    = UTC
MEAN_ELEMENT_THEORY = SGP/SGP4

EPOCH          = 2026-02-25T14:00:03.000384
MEAN_MOTION    = 15.75176328
ECCENTRICITY   = .00012679
INCLINATION    = 97.2841
RA_OF_ASC_NODE = 167.5173
ARG_OF_PERICENTER = 96.8283
MEAN_ANOMALY   = 176.2084

EPHEMERIS_TYPE = 0
CLASSIFICATION_TYPE = U
NORAD_CAT_ID   = 67693
ELEMENT_SET_NO = 999
REV_AT_EPOCH   = 390
BSTAR          = -.15858838E-3
MEAN_MOTION_DOT = -.23704E-3
MEAN_MOTION_DDOT = 0

CCSDS_OMM_VERS = 2.0
CREATION_DATE  = 
ORIGINATOR     = 

OBJECT_NAME    = STARLINK-36753
OBJECT_ID      = 2026-025B
CENTER_NAME    = EARTH
REF_FRAME      = TEME
TIME_SYSTEM    = UTC
MEAN_ELEMENT_THEORY = SGP/SGP4

EPOCH          = 2026-02-25T14:00:03.000384
MEAN_MOTION    = 15.75206913
ECCENTRICITY   = .00014314
INCLINATION    = 97.2843
RA_OF_ASC_NODE = 167.5350
ARG_OF_PERICENTER = 79.2808
MEAN_ANOMALY   = 237.7396

EPHEMERIS_TYPE = 0
CLASSIFICATION_TYPE = U
NORAD_CAT_ID   = 67694
ELEMENT_SET_NO = 999
REV_AT_EPOCH   = 406
BSTAR          = -.51709559E-3
MEAN_MOTION_DOT = -.76627E-3
MEAN_MOTION_DDOT = 0

CCSDS_OMM_VERS = 2.0
CREATION_DATE  = 
ORIGINATOR     = 

OBJECT_NAME    = STARLINK-36750
OBJECT_ID      = 2026-025C
CENTER_NAME    = EARTH
REF_FRAME      = TEME
TIME_SYSTEM    = UTC
MEAN_ELEMENT_THEORY = SGP/SGP4

EPOCH          = 2026-02-25T11:06:02.834784
MEAN_MOTION    = 15.80901366
ECCENTRICITY   = .00013864
INCLINATION    = 97.2831
RA_OF_ASC_NODE = 167.4124
ARG_OF_PERICENTER = 91.7593
MEAN_ANOMALY   = 268.3834

EPHEMERIS_TYPE = 0
CLASSIFICATION_TYPE = U
NORAD_CAT_ID   = 67695
ELEMENT_SET_NO = 999
REV_AT_EPOCH   = 401
BSTAR          = .88265148E-3
MEAN_MOTION_DOT = .172994E-2
MEAN_MOTION_DDOT = 0

CCSDS_OMM_VERS = 2.0
CREATION_DATE  = 
ORIGINATOR     = 

OBJECT_NAME    = STARLINK-36401
OBJECT_ID      = 2026-025D
CENTER_NAME    = EARTH
REF_FRAME      = TEME
TIME_SYSTEM    = UTC
MEAN_ELEMENT_THEORY = SGP/SGP4

EPOCH          = 2026-02-25T11:03:48.675456
MEAN_MOTION    = 15.80931340
ECCENTRICITY   = .00014596
INCLINATION    = 97.2829
RA_OF_ASC_NODE = 167.4142
ARG_OF_PERICENTER = 82.6089
MEAN_ANOMALY   = 277.5345

EPHEMERIS_TYPE = 0
CLASSIFICATION_TYPE = U
NORAD_CAT_ID   = 67696
ELEMENT_SET_NO = 999
REV_AT_EPOCH   = 401
BSTAR          = .11651196E-2
MEAN_MOTION_DOT = .230233E-2
MEAN_MOTION_DDOT = 0

CCSDS_OMM_VERS = 2.0
CREATION_DATE  = 
ORIGINATOR     = 

OBJECT_NAME    = STARLINK-36704
OBJECT_ID      = 2026-025E
CENTER_NAME    = EARTH
REF_FRAME      = TEME
TIME_SYSTEM    = UTC
MEAN_ELEMENT_THEORY = SGP/SGP4

EPOCH          = 2026-02-25T14:00:03.000384
MEAN_MOTION    = 15.75253781
ECCENTRICITY   = .00014695
INCLINATION    = 97.2841
RA_OF_ASC_NODE = 167.5393
ARG_OF_PERICENTER = 70.3568
MEAN_ANOMALY   = 258.6254

EPHEMERIS_TYPE = 0
CLASSIFICATION_TYPE = U
NORAD_CAT_ID   = 67697
ELEMENT_SET_NO = 999
REV_AT_EPOCH   = 390
BSTAR          = -.10028324E-2
MEAN_MOTION_DOT = -.147566E-2
MEAN_MOTION_DDOT = 0

